CCSDS_OMM_VERS = 2.0
CREATION_DATE  = 
ORIGINATOR     = 

OBJECT_NAME    = STARLINK-36829
OBJECT_ID      = 2026-037AB
CENTER_NAME    = EARTH
REF_FRAME      = TEME
TIME_SYSTEM    = UTC
MEAN_ELEMENT_THEORY = SGP/SGP4

EPOCH          = 2026-03-03T14:00:03.000384
MEAN_MOTION    = 16.00206579
ECCENTRICITY   = .0001733
INCLINATION    = 43.0006
RA_OF_ASC_NODE = 236.2783
ARG_OF_PERICENTER = 262.9162
MEAN_ANOMALY   = 358.5487

EPHEMERIS_TYPE = 0
CLASSIFICATION_TYPE = U
NORAD_CAT_ID   = 67957
ELEMENT_SET_NO = 999
REV_AT_EPOCH   = 221
BSTAR          = -.24123E-2
MEAN_MOTION_DOT = -.1298095E-1
MEAN_MOTION_DDOT = .52931E-3

CCSDS_OMM_VERS = 2.0
CREATION_DATE  = 
ORIGINATOR     = 

OBJECT_NAME    = STARLINK-36799
OBJECT_ID      = 2026-037AC
CENTER_NAME    = EARTH
REF_FRAME      = TEME
TIME_SYSTEM    = UTC
MEAN_ELEMENT_THEORY = SGP/SGP4

EPOCH          = 2026-03-03T14:00:03.000384
MEAN_MOTION    = 16.00596059
ECCENTRICITY   = .0001811
INCLINATION    = 43.0003
RA_OF_ASC_NODE = 236.2647
ARG_OF_PERICENTER = 267.6030
MEAN_ANOMALY   = 359.2839

EPHEMERIS_TYPE = 0
CLASSIFICATION_TYPE = U
NORAD_CAT_ID   = 67958
ELEMENT_SET_NO = 999
REV_AT_EPOCH   = 221
BSTAR          = -.23573E-2
MEAN_MOTION_DOT = -.1297319E-1
MEAN_MOTION_DDOT = .53096E-3

CCSDS_OMM_VERS = 2.0
CREATION_DATE  = 
ORIGINATOR     = 

OBJECT_NAME    = STARLINK-36834
OBJECT_ID      = 2026-037AD
CENTER_NAME    = EARTH
REF_FRAME      = TEME
TIME_SYSTEM    = UTC
MEAN_ELEMENT_THEORY = SGP/SGP4

EPOCH          = 2026-03-03T14:00:03.000384
MEAN_MOTION    = 16.00862766
ECCENTRICITY   = .0001699
INCLINATION    = 43.0004
RA_OF_ASC_NODE = 236.2549
ARG_OF_PERICENTER = 261.9604
MEAN_ANOMALY   = 8.6563

EPHEMERIS_TYPE = 0
CLASSIFICATION_TYPE = U
NORAD_CAT_ID   = 67959
ELEMENT_SET_NO = 999
REV_AT_EPOCH   = 221
BSTAR          = -.23107E-2
MEAN_MOTION_DOT = -.129151E-1
MEAN_MOTION_DDOT = .52814E-3

CCSDS_OMM_VERS = 2.0
CREATION_DATE  = 
ORIGINATOR     = 

OBJECT_NAME    = STARLINK-36841
OBJECT_ID      = 2026-037AE
CENTER_NAME    = EARTH
REF_FRAME      = TEME
TIME_SYSTEM    = UTC
MEAN_ELEMENT_THEORY = SGP/SGP4

EPOCH          = 2026-03-03T14:00:03.000384
MEAN_MOTION    = 16.00719353
ECCENTRICITY   = .0001654
INCLINATION    = 43.0002
RA_OF_ASC_NODE = 236.2598
ARG_OF_PERICENTER = 261.8497
MEAN_ANOMALY   = 6.7904

EPHEMERIS_TYPE = 0
CLASSIFICATION_TYPE = U
NORAD_CAT_ID   = 67960
ELEMENT_SET_NO = 999
REV_AT_EPOCH   = 221
BSTAR          = -.2327E-2
MEAN_MOTION_DOT = -.1289906E-1
MEAN_MOTION_DDOT = .52612E-3

CCSDS_OMM_VERS = 2.0
CREATION_DATE  = 
ORIGINATOR     = 

OBJECT_NAME    = STARLINK-36912
OBJECT_ID      = 2026-038A
CENTER_NAME    = EARTH
REF_FRAME      = TEME
TIME_SYSTEM    = UTC
MEAN_ELEMENT_THEORY = SGP/SGP4

EPOCH          = 2026-03-03T14:00:03.000384
MEAN_MOTION    = 16.05684285
ECCENTRICITY   = .0000915
INCLINATION    = 97.2786
RA_OF_ASC_NODE = 72.3521
ARG_OF_PERICENTER = 98.5358
MEAN_ANOMALY   = 129.0605

EPHEMERIS_TYPE = 0
CLASSIFICATION_TYPE = U
NORAD_CAT_ID   = 67961
ELEMENT_SET_NO = 999
REV_AT_EPOCH   = 221
BSTAR          = -.13633E-2
MEAN_MOTION_DOT = -.961523E-2
MEAN_MOTION_DDOT = .32581E-3

CCSDS_OMM_VERS = 2.0
CREATION_DATE  = 
ORIGINATOR     = 

OBJECT_NAME    = STARLINK-36881
OBJECT_ID      = 2026-038B
CENTER_NAME    = EARTH
REF_FRAME      = TEME
TIME_SYSTEM    = UTC
MEAN_ELEMENT_THEORY = SGP/SGP4

EPOCH          = 2026-03-03T14:00:03.000384
MEAN_MOTION    = 16.05758905
ECCENTRICITY   = .0001016
INCLINATION    = 97.2785
RA_OF_ASC_NODE = 72.3525
ARG_OF_PERICENTER = 79.1203
MEAN_ANOMALY   = 149.7469

EPHEMERIS_TYPE = 0
CLASSIFICATION_TYPE = U
NORAD_CAT_ID   = 67962
ELEMENT_SET_NO = 999
REV_AT_EPOCH   = 221
BSTAR          = -.13583E-2
MEAN_MOTION_DOT = -.9624E-2
MEAN_MOTION_DDOT = .32666E-3

CCSDS_OMM_VERS = 2.0
CREATION_DATE  = 
ORIGINATOR     = 

OBJECT_NAME    = STARLINK-36357
OBJECT_ID      = 2026-038C
CENTER_NAME    = EARTH
REF_FRAME      = TEME
TIME_SYSTEM    = UTC
MEAN_ELEMENT_THEORY = SGP/SGP4

EPOCH          = 2026-03-03T14:00:03.000384
MEAN_MOTION    = 16.05978027
ECCENTRICITY   = .0000961
INCLINATION    = 97.2783
RA_OF_ASC_NODE = 72.3541
ARG_OF_PERICENTER = 96.5876
MEAN_ANOMALY   = 135.4917

EPHEMERIS_TYPE = 0
CLASSIFICATION_TYPE = U
NORAD_CAT_ID   = 67963
ELEMENT_SET_NO = 999
REV_AT_EPOCH   = 221
BSTAR          = -.13435E-2
MEAN_MOTION_DOT = -.964718E-2
MEAN_MOTION_DDOT = .32899E-3

CCSDS_OMM_VERS = 2.0
CREATION_DATE  = 
ORIGINATOR     = 

OBJECT_NAME    = STARLINK-36349
OBJECT_ID      = 2026-038D
CENTER_NAME    = EARTH
REF_FRAME      = TEME
TIME_SYSTEM    = UTC
MEAN_ELEMENT_THEORY = SGP/SGP4

EPOCH          = 2026-03-03T14:00:03.000384
MEAN_MOTION    = 16.05885238
ECCENTRICITY   = .0000973
INCLINATION    = 97.2782
RA_OF_ASC_NODE = 72.3531
ARG_OF_PERICENTER = 92.0409
MEAN_ANOMALY   = 138.4401

EPHEMERIS_TYPE = 0
CLASSIFICATION_TYPE = U
NORAD_CAT_ID   = 67964
ELEMENT_SET_NO = 999
REV_AT_EPOCH   = 221
BSTAR          = -.1347E-2
MEAN_MOTION_DOT = -.961767E-2
MEAN_MOTION_DDOT = .32676E-3

CCSDS_OMM_VERS = 2.0
CREATION_DATE  = 
ORIGINATOR     = 

OBJECT_NAME    = STARLINK-36806
OBJECT_ID      = 2026-038E
CENTER_NAME    = EARTH
REF_FRAME      = TEME
TIME_SYSTEM    = UTC
MEAN_ELEMENT_THEORY = SGP/SGP4

EPOCH          = 2026-03-03T14:00:03.000384
MEAN_MOTION    = 16.06098620
ECCENTRICITY   = .0001055
INCLINATION    = 97.2780
RA_OF_ASC_NODE = 72.3548
ARG_OF_PERICENTER = 79.7714
MEAN_ANOMALY   = 154.1540

EPHEMERIS_TYPE = 0
CLASSIFICATION_TYPE = U
NORAD_CAT_ID   = 67965
ELEMENT_SET_NO = 999
REV_AT_EPOCH   = 221
BSTAR          = -.13214E-2
MEAN_MOTION_DOT = -.955941E-2
MEAN_MOTION_DDOT = .32396E-3

CCSDS_OMM_VERS = 2.0
CREATION_DATE  = 
ORIGINATOR     = 

OBJECT_NAME    = STARLINK-36820
OBJECT_ID      = 2026-038F
CENTER_NAME    = EARTH
REF_FRAME      = TEME
TIME_SYSTEM    = UTC
MEAN_ELEMENT_THEORY = SGP/SGP4

EPOCH          = 2026-03-03T14:00:03.000384
MEAN_MOTION    = 16.06207771
ECCENTRICITY   = .0000966
INCLINATION    = 97.2780
RA_OF_ASC_NODE = 72.3555
ARG_OF_PERICENTER = 104.8013
MEAN_ANOMALY   = 130.6831

EPHEMERIS_TYPE = 0
CLASSIFICATION_TYPE = U
NORAD_CAT_ID   = 67966
ELEMENT_SET_NO = 999
REV_AT_EPOCH   = 221
BSTAR          = -.13171E-2
MEAN_MOTION_DOT = -.959198E-2
MEAN_MOTION_DDOT = .32644E-3

CCSDS_OMM_VERS = 2.0
CREATION_DATE  = 
ORIGINATOR     = 

OBJECT_NAME    = STARLINK-36819
OBJECT_ID      = 2026-038G
CENTER_NAME    = EARTH
REF_FRAME      = TEME
TIME_SYSTEM    = UTC
MEAN_ELEMENT_THEORY = SGP/SGP4

EPOCH          = 2026-03-03T14:00:03.000384
MEAN_MOTION    = 16.06325312
ECCENTRICITY   = .0001081
INCLINATION    = 97.2780
RA_OF_ASC_NODE = 72.3561
ARG_OF_PERICENTER = 74.5892
MEAN_ANOMALY   = 162.5619

EPHEMERIS_TYPE = 0
CLASSIFICATION_TYPE = U
NORAD_CAT_ID   = 67967
ELEMENT_SET_NO = 999
REV_AT_EPOCH   = 221
BSTAR          = -.13141E-2
MEAN_MOTION_DOT = -.963891E-2
MEAN_MOTION_DDOT = .32989E-3

CCSDS_OMM_VERS = 2.0
CREATION_DATE  = 
ORIGINATOR     = 

OBJECT_NAME    = STARLINK-36812
OBJECT_ID      = 2026-038H
CENTER_NAME    = EARTH
REF_FRAME      = TEME
TIME_SYSTEM    = UTC
MEAN_ELEMENT_THEORY = SGP/SGP4

EPOCH          = 2026-03-03T14:00:03.000384
MEAN_MOTION    = 16.06421246
ECCENTRICITY   = .0001063
INCLINATION    = 97.2778
RA_OF_ASC_NODE = 72.3565
ARG_OF_PERICENTER = 74.3038
MEAN_ANOMALY   = 164.3129

EPHEMERIS_TYPE = 0
CLASSIFICATION_TYPE = U
NORAD_CAT_ID   = 67968
ELEMENT_SET_NO = 999
REV_AT_EPOCH   = 221
BSTAR          = -.13074E-2
MEAN_MOTION_DOT = -.964643E-2
MEAN_MOTION_DDOT = .33075E-3

